{"type": "FeatureCollection", "features": [ {"type": "Feature", "properties": {"norad_id": 30242, "name": "FENGYUN 1C DEB", "group": "fengyun-1c-debris", "lat": -75.64327421935468, "lon": 173.77468605871212, "alt_km": 845.4170136039638, "timestamp": "2025-12-22T11:33:20.714229+00:00", "meta": {"OBJECT_NAME": "FENGYUN 1C DEB", "OBJECT_ID": "1999-025XB", "EPOCH": "2025-12-21T13:06:17.036064", "MEAN_MOTION": 14.17657802, "ECCENTRICITY": 0.0010677, "INCLINATION": 98.6826, "RA_OF_ASC_NODE": 29.5172, "ARG_OF_PERICENTER": 30.1382, "MEAN_ANOMALY": 136.9609, "EPHEMERIS_TYPE": 0, "CLASSIFICATION_TYPE": "U", "NORAD_CAT_ID": 30242, "ELEMENT_SET_NO": 999, "REV_AT_EPOCH": 97551, "BSTAR": 0.00047815, "MEAN_MOTION_DOT": 9.3e-06, "MEAN_MOTION_DDOT": 0}, "tle": {"line1": "1 30242U 99025XB  25355.54603051  .00000930  00000+0  47815-3 0  9999", "line2": "2 30242  98.6826  29.5172 0010677  30.1382 136.9609 14.17657802975518"}}, "geometry": {"type": "Point", "coordinates": [173.77468605871212, -75.64327421935468]}}, {"type": "Feature", "properties": {"norad_id": 30243, "name": "FENGYUN 1C DEB", "group": "fengyun-1c-debris", "lat": -0.7688232062613043, "lon": -172.49988622668698, "alt_km": 851.5761464173547, "timestamp": "2025-12-22T11:33:20.714239+00:00", "meta": {"OBJECT_NAME": "FENGYUN 1C DEB", "OBJECT_ID": "1999-025XC", "EPOCH": "2025-12-21T01:00:46.022112", "MEAN_MOTION": 14.13032996, "ECCENTRICITY": 0.00132068, "INCLINATION": 98.6926, "RA_OF_ASC_NODE": 6.2203, "ARG_OF_PERICENTER": 97.2954, "MEAN_ANOMALY": 325.7567, "EPHEMERIS_TYPE": 0, "CLASSIFICATION_TYPE": "U", "NORAD_CAT_ID": 30243, "ELEMENT_SET_NO": 999, "REV_AT_EPOCH": 97396, "BSTAR": 0.00030039637, "MEAN_MOTION_DOT": 5.18e-06, "MEAN_MOTION_DDOT": 0}, "tle": {"line1": "1 30243U 99025XC  25355.04219933  .00000518  00000+0  30040-3 0  9991", "line2": "2 30243  98.6926   6.2203 0013206  97.2954 325.7567 14.13032996973962"}}, "geometry": {"type": "Point", "coordinates": [-172.49988622668698, -0.7688232062613043]}}, {"type": "Feature", "properties": {"norad_id": 30244, "name": "FENGYUN 1C DEB", "group": "fengyun-1c-debris", "lat": 79.91251854704686, "lon": -178.49095676831197, "alt_km": 841.0103452656067, "timestamp": "2025-12-22T11:33:20.714249+00:00", "meta": {"OBJECT_NAME": "FENGYUN 1C DEB", "OBJECT_ID": "1999-025XD", "EPOCH": "2025-12-21T16:47:23.093376", "MEAN_MOTION": 14.15027992, "ECCENTRICITY": 0.0009211, "INCLINATION": 99.1434, "RA_OF_ASC_NODE": 245.5709, "ARG_OF_PERICENTER": 288.679, "MEAN_ANOMALY": 136.0645, "EPHEMERIS_TYPE": 0, "CLASSIFICATION_TYPE": "U", "NORAD_CAT_ID": 30244, "ELEMENT_SET_NO": 999, "REV_AT_EPOCH": 97473, "BSTAR": 0.0002965, "MEAN_MOTION_DOT": 5.28e-06, "MEAN_MOTION_DDOT": 0}, "tle": {"line1": "1 30244U 99025XD  25355.69957284  .00000528  00000+0  29650-3 0  9997", "line2": "2 30244  99.1434 245.5709 0009211 288.6790 136.0645 14.15027992974735"}}, "geometry": {"type": "Point", "coordinates": [-178.49095676831197, 79.91251854704686]}}, {"type": "Feature", "properties": {"norad_id": 30245, "name": "FENGYUN 1C DEB", "group": "fengyun-1c-debris", "lat": 46.04797750478271, "lon": -25.856757967145207, "alt_km": 1104.671554194464, "timestamp": "2025-12-22T11:33:20.714260+00:00", "meta": {"OBJECT_NAME": "FENGYUN 1C DEB", "OBJECT_ID": "1999-025XE", "EPOCH": "2025-12-20T22:45:20.121120", "MEAN_MOTION": 13.79086475, "ECCENTRICITY": 0.0192917, "INCLINATION": 98.8894, "RA_OF_ASC_NODE": 342.0463, "ARG_OF_PERICENTER": 228.9674, "MEAN_ANOMALY": 129.4665, "EPHEMERIS_TYPE": 0, "CLASSIFICATION_TYPE": "U", "NORAD_CAT_ID": 30245, "ELEMENT_SET_NO": 999, "REV_AT_EPOCH": 94807, "BSTAR": 0.00075178, "MEAN_MOTION_DOT": 8.42e-06, "MEAN_MOTION_DDOT": 0}, "tle": {"line1": "1 30245U 99025XE  25354.94814955  .00000842  00000+0  75178-3 0  9997", "line2": "2 30245  98.8894 342.0463 0192917 228.9674 129.4665 13.79086475948072"}}, "geometry": {"type": "Point", "coordinates": [-25.856757967145207, 46.04797750478271]}}, {"type": "Feature", "properties": {"norad_id": 30246, "name": "FENGYUN 1C DEB", "group": "fengyun-1c-debris", "lat": 64.53959936933485, "lon": -22.566836338239266, "alt_km": 893.2901132509969, "timestamp": "2025-12-22T11:33:20.714270+00:00", "meta": {"OBJECT_NAME": "FENGYUN 1C DEB", "OBJECT_ID": "1999-025XF", "EPOCH": "2025-12-22T04:41:46.192128", "MEAN_MOTION": 13.37022656, "ECCENTRICITY": 0.0370532, "INCLINATION": 98.6736, "RA_OF_ASC_NODE": 138.4907, "ARG_OF_PERICENTER": 75.9901, "MEAN_ANOMALY": 100.4014, "EPHEMERIS_TYPE": 0, "CLASSIFICATION_TYPE": "U", "NORAD_CAT_ID": 30246, "ELEMENT_SET_NO": 999, "REV_AT_EPOCH": 92266, "BSTAR": 0.00025165, "MEAN_MOTION_DOT": 1.62e-06, "MEAN_MOTION_DDOT": 0}, "tle": {"line1": "1 30246U 99025XF  25356.19567352  .00000162  00000+0  25165-3 0  9999", "line2": "2 30246  98.6736 138.4907 0370532  75.9901 100.4014 13.37022656922669"}}, "geometry": {"type": "Point", "coordinates": [-22.566836338239266, 64.53959936933485]}}, {"type": "Feature", "properties": {"norad_id": 30247, "name": "FENGYUN 1C DEB", "group": "fengyun-1c-debris", "lat": 37.987371665770176, "lon": 90.14282333300771, "alt_km": 828.0241163613127, "timestamp": "2025-12-22T11:33:20.714280+00:00", "meta": {"OBJECT_NAME": "FENGYUN 1C DEB", "OBJECT_ID": "1999-025XG", "EPOCH": "2025-12-21T12:40:44.034816", "MEAN_MOTION": 14.59485106, "ECCENTRICITY": 0.01924312, "INCLINATION": 98.2771, "RA_OF_ASC_NODE": 262.6639, "ARG_OF_PERICENTER": 324.7921, "MEAN_ANOMALY": 211.2938, "EPHEMERIS_TYPE": 0, "CLASSIFICATION_TYPE": "U", "NORAD_CAT_ID": 30247, "ELEMENT_SET_NO": 999, "REV_AT_EPOCH": 97410, "BSTAR": 0.0026470553, "MEAN_MOTION_DOT": 0.00016256, "MEAN_MOTION_DDOT": 0}, "tle": {"line1": "1 30247U 99025XG  25355.52828744  .00016256  00000+0  26471-2 0  9992", "line2": "2 30247  98.2771 262.6639 0192431 324.7921 211.2938 14.59485106974104"}}, "geometry": {"type": "Point", "coordinates": [90.14282333300771, 37.987371665770176]}}, {"type": "Feature", "properties": {"norad_id": 30248, "name": "FENGYUN 1C DEB", "group": "fengyun-1c-debris", "lat": 3.4314220819105197, "lon": 2.083089316395425, "alt_km": 686.2959408379384, "timestamp": "2025-12-22T11:33:20.714291+00:00", "meta": {"OBJECT_NAME": "FENGYUN 1C DEB", "OBJECT_ID": "1999-025XH", "EPOCH": "2025-12-20T11:02:07.370592", "MEAN_MOTION": 14.59419163, "ECCENTRICITY": 0.00278685, "INCLINATION": 99.0961, "RA_OF_ASC_NODE": 179.3187, "ARG_OF_PERICENTER": 126.6858, "MEAN_ANOMALY": 233.6906, "EPHEMERIS_TYPE": 0, "CLASSIFICATION_TYPE": "U", "NORAD_CAT_ID": 30248, "ELEMENT_SET_NO": 999, "REV_AT_EPOCH": 97541, "BSTAR": 0.0023807089, "MEAN_MOTION_DOT": 0.00011303, "MEAN_MOTION_DDOT": 0}, "tle": {"line1": "1 30248U 99025XH  25354.45980753  .00011303  00000+0  23807-2 0  9991", "line2": "2 30248  99.0961 179.3187 0027868 126.6858 233.6906 14.59419163975414"}}, "geometry": {"type": "Point", "coordinates": [2.083089316395425, 3.4314220819105197]}}, {"type": "Feature", "properties": {"norad_id": 30249, "name": "FENGYUN 1C DEB", "group": "fengyun-1c-debris", "lat": -9.86764326302751, "lon": -19.928974685967308, "alt_km": 722.9394090024498, "timestamp": "2025-12-22T11:33:20.714312+00:00", "meta": {"OBJECT_NAME": "FENGYUN 1C DEB", "OBJECT_ID": "1999-025XJ", "EPOCH": "2025-12-22T01:21:07.992000", "MEAN_MOTION": 14.57910052, "ECCENTRICITY": 0.0026707, "INCLINATION": 98.9593, "RA_OF_ASC_NODE": 161.186, "ARG_OF_PERICENTER": 12.2786, "MEAN_ANOMALY": 107.4938, "EPHEMERIS_TYPE": 0, "CLASSIFICATION_TYPE": "U", "NORAD_CAT_ID": 30249, "ELEMENT_SET_NO": 999, "REV_AT_EPOCH": 97699, "BSTAR": 0.0033975, "MEAN_MOTION_DOT": 0.00015635, "MEAN_MOTION_DDOT": 0}, "tle": {"line1": "1 30249U 99025XJ  25356.05634250  .00015635  00000+0  33975-2 0  9997", "line2": "2 30249  98.9593 161.1860 0026707  12.2786 107.4938 14.57910052976990"}}, "geometry": {"type": "Point", "coordinates": [-19.928974685967308, -9.86764326302751]}}, {"type": "Feature", "properties": {"norad_id": 30250, "name": "FENGYUN 1C DEB", "group": "fengyun-1c-debris", "lat": 76.53883044278435, "lon": -151.89272252077, "alt_km": 885.35012189803, "timestamp": "2025-12-22T11:33:20.714324+00:00", "meta": {"OBJECT_NAME": "FENGYUN 1C DEB", "OBJECT_ID": "1999-025XK", "EPOCH": "2025-12-21T23:20:46.164192", "MEAN_MOTION": 14.01634916, "ECCENTRICITY": 0.0068397, "INCLINATION": 98.7545, "RA_OF_ASC_NODE": 347.5464, "ARG_OF_PERICENTER": 197.2016, "MEAN_ANOMALY": 218.231, "EPHEMERIS_TYPE": 0, "CLASSIFICATION_TYPE": "U", "NORAD_CAT_ID": 30250, "ELEMENT_SET_NO": 999, "REV_AT_EPOCH": 96621, "BSTAR": 0.0002509, "MEAN_MOTION_DOT": 3.46e-06, "MEAN_MOTION_DDOT": 0}, "tle": {"line1": "1 30250U 99025XK  25355.97275653  .00000346  00000+0  25090-3 0  9990", "line2": "2 30250  98.7545 347.5464 0068397 197.2016 218.2310 14.01634916966218"}}, "geometry": {"type": "Point", "coordinates": [-151.89272252077, 76.53883044278435]}}, {"type": "Feature", "properties": {"norad_id": 30251, "name": "FENGYUN 1C DEB", "group": "fengyun-1c-debris", "lat": 55.47406957597035, "lon": -178.2195770148151, "alt_km": 803.9151756168621, "timestamp": "2025-12-22T11:33:20.714334+00:00", "meta": {"OBJECT_NAME": "FENGYUN 1C DEB", "OBJECT_ID": "1999-025XL", "EPOCH": "2025-12-21T20:13:49.939104", "MEAN_MOTION": 14.29324334, "ECCENTRICITY": 0.0051475, "INCLINATION": 99.0488, "RA_OF_ASC_NODE": 194.5117, "ARG_OF_PERICENTER": 303.7731, "MEAN_ANOMALY": 68.4308, "EPHEMERIS_TYPE": 0, "CLASSIFICATION_TYPE": "U", "NORAD_CAT_ID": 30251, "ELEMENT_SET_NO": 999, "REV_AT_EPOCH": 98272, "BSTAR": 0.00037739, "MEAN_MOTION_DOT": 9.26e-06, "MEAN_MOTION_DDOT": 0}, "tle": {"line1": "1 30251U 99025XL  25355.84293911  .00000926  00000+0  37739-3 0  9991", "line2": "2 30251  99.0488 194.5117 0051475 303.7731  68.4308 14.29324334982727"}}, "geometry": {"type": "Point", "coordinates": [-178.2195770148151, 55.47406957597035]}}]}